{"type": "FeatureCollection", "features": [ {"type": "Feature", "properties": {"norad_id": 66615, "name": "STARLINK-35988", "group": "last-30-days", "lat": 6.040369377583234, "lon": 127.40566741508964, "alt_km": 442.8526973621483, "timestamp": "2025-12-25T03:55:54.951830+00:00", "meta": {"OBJECT_NAME": "STARLINK-35988", "OBJECT_ID": "2025-270AD", "EPOCH": "2025-12-24T15:26:48.708384", "MEAN_MOTION": 15.40720042, "ECCENTRICITY": 8.45e-05, "INCLINATION": 42.9985, "RA_OF_ASC_NODE": 123.8838, "ARG_OF_PERICENTER": 268.0522, "MEAN_ANOMALY": 92.0238, "EPHEMERIS_TYPE": 0, "CLASSIFICATION_TYPE": "U", "NORAD_CAT_ID": 66615, "ELEMENT_SET_NO": 999, "REV_AT_EPOCH": 602, "BSTAR": 0.0012104, "MEAN_MOTION_DOT": 0.00050626, "MEAN_MOTION_DDOT": 0}, "tle": {"line1": "1 66615U 25270AD  25358.64361931  .00050626  00000+0  12104-2 0  9994", "line2": "2 66615  42.9985 123.8838 0000845 268.0522  92.0238 15.40720042  6025"}}, "geometry": {"type": "Point", "coordinates": [127.40566741508964, 6.040369377583234]}}, {"type": "Feature", "properties": {"norad_id": 66616, "name": "STARLINK-35391", "group": "last-30-days", "lat": 40.10875703028172, "lon": -124.02402196660448, "alt_km": 438.5245591026205, "timestamp": "2025-12-25T03:55:54.951840+00:00", "meta": {"OBJECT_NAME": "STARLINK-35391", "OBJECT_ID": "2025-270AE", "EPOCH": "2025-12-23T18:47:24.441792", "MEAN_MOTION": 15.4075586, "ECCENTRICITY": 0.00023181, "INCLINATION": 43.0035, "RA_OF_ASC_NODE": 128.6027, "ARG_OF_PERICENTER": 265.0405, "MEAN_ANOMALY": 95.0187, "EPHEMERIS_TYPE": 0, "CLASSIFICATION_TYPE": "U", "NORAD_CAT_ID": 66616, "ELEMENT_SET_NO": 999, "REV_AT_EPOCH": 616, "BSTAR": 0.0014141902, "MEAN_MOTION_DOT": 0.00059344, "MEAN_MOTION_DDOT": 0}, "tle": {"line1": "1 66616U 25270AE  25357.78292178  .00059344  00000+0  14142-2 0  9995", "line2": "2 66616  43.0035 128.6027 0002318 265.0405  95.0187 15.40755860  6168"}}, "geometry": {"type": "Point", "coordinates": [-124.02402196660448, 40.10875703028172]}}, {"type": "Feature", "properties": {"norad_id": 66617, "name": "STARLINK-35940", "group": "last-30-days", "lat": -40.77818473180142, "lon": 88.25191269222972, "alt_km": 452.031113532229, "timestamp": "2025-12-25T03:55:54.951850+00:00", "meta": {"OBJECT_NAME": "STARLINK-35940", "OBJECT_ID": "2025-271A", "EPOCH": "2025-12-24T15:42:19.893024", "MEAN_MOTION": 15.39621387, "ECCENTRICITY": 0.0001031, "INCLINATION": 53.1592, "RA_OF_ASC_NODE": 130.9433, "ARG_OF_PERICENTER": 82.3406, "MEAN_ANOMALY": 277.7716, "EPHEMERIS_TYPE": 0, "CLASSIFICATION_TYPE": "U", "NORAD_CAT_ID": 66617, "ELEMENT_SET_NO": 999, "REV_AT_EPOCH": 604, "BSTAR": 0.0011301, "MEAN_MOTION_DOT": 0.00045073, "MEAN_MOTION_DDOT": 0}, "tle": {"line1": "1 66617U 25271A   25358.65439691  .00045073  00000+0  11301-2 0  9995", "line2": "2 66617  53.1592 130.9433 0001031  82.3406 277.7716 15.39621387  6046"}}, "geometry": {"type": "Point", "coordinates": [88.25191269222972, -40.77818473180142]}}, {"type": "Feature", "properties": {"norad_id": 66618, "name": "STARLINK-35970", "group": "last-30-days", "lat": -52.30014630841461, "lon": 51.93674154458352, "alt_km": 444.359279645415, "timestamp": "2025-12-25T03:55:54.951863+00:00", "meta": {"OBJECT_NAME": "STARLINK-35970", "OBJECT_ID": "2025-271B", "EPOCH": "2025-12-24T20:00:01.000224", "MEAN_MOTION": 15.44041454, "ECCENTRICITY": 0.0001522, "INCLINATION": 53.1598, "RA_OF_ASC_NODE": 129.4411, "ARG_OF_PERICENTER": 93.7897, "MEAN_ANOMALY": 147.6005, "EPHEMERIS_TYPE": 0, "CLASSIFICATION_TYPE": "U", "NORAD_CAT_ID": 66618, "ELEMENT_SET_NO": 999, "REV_AT_EPOCH": 597, "BSTAR": -0.049476, "MEAN_MOTION_DOT": -0.02040795, "MEAN_MOTION_DDOT": 0}, "tle": {"line1": "1 66618U 25271B   25358.83334491 -.02040795  00000+0 -49476-1 0  9991", "line2": "2 66618  53.1598 129.4411 0001522  93.7897 147.6005 15.44041454  5971"}}, "geometry": {"type": "Point", "coordinates": [51.93674154458352, -52.30014630841461]}}, {"type": "Feature", "properties": {"norad_id": 66619, "name": "STARLINK-35951", "group": "last-30-days", "lat": 2.2765804010019686, "lon": -53.62601626334974, "alt_km": 447.9691743003177, "timestamp": "2025-12-25T03:55:54.951873+00:00", "meta": {"OBJECT_NAME": "STARLINK-35951", "OBJECT_ID": "2025-271C", "EPOCH": "2025-12-24T20:00:01.000224", "MEAN_MOTION": 15.39563812, "ECCENTRICITY": 0.0001268, "INCLINATION": 53.1593, "RA_OF_ASC_NODE": 129.6396, "ARG_OF_PERICENTER": 77.6381, "MEAN_ANOMALY": 66.6436, "EPHEMERIS_TYPE": 0, "CLASSIFICATION_TYPE": "U", "NORAD_CAT_ID": 66619, "ELEMENT_SET_NO": 999, "REV_AT_EPOCH": 602, "BSTAR": 0.0020388, "MEAN_MOTION_DOT": 0.00081878, "MEAN_MOTION_DDOT": 0}, "tle": {"line1": "1 66619U 25271C   25358.83334491  .00081878  00000+0  20388-2 0  9997", "line2": "2 66619  53.1593 129.6396 0001268  77.6381  66.6436 15.39563812  6023"}}, "geometry": {"type": "Point", "coordinates": [-53.62601626334974, 2.2765804010019686]}}, {"type": "Feature", "properties": {"norad_id": 66620, "name": "STARLINK-35936", "group": "last-30-days", "lat": 40.57528614730969, "lon": -91.75769365904421, "alt_km": 441.45804564902573, "timestamp": "2025-12-25T03:55:54.951884+00:00", "meta": {"OBJECT_NAME": "STARLINK-35936", "OBJECT_ID": "2025-271D", "EPOCH": "2025-12-24T20:00:01.000224", "MEAN_MOTION": 15.39565357, "ECCENTRICITY": 0.0001256, "INCLINATION": 53.1595, "RA_OF_ASC_NODE": 129.7437, "ARG_OF_PERICENTER": 67.3132, "MEAN_ANOMALY": 25.4763, "EPHEMERIS_TYPE": 0, "CLASSIFICATION_TYPE": "U", "NORAD_CAT_ID": 66620, "ELEMENT_SET_NO": 999, "REV_AT_EPOCH": 602, "BSTAR": 0.0019442, "MEAN_MOTION_DOT": 0.00078025, "MEAN_MOTION_DDOT": 0}, "tle": {"line1": "1 66620U 25271D   25358.83334491  .00078025  00000+0  19442-2 0  9998", "line2": "2 66620  53.1595 129.7437 0001256  67.3132  25.4763 15.39565357  6023"}}, "geometry": {"type": "Point", "coordinates": [-91.75769365904421, 40.57528614730969]}}, {"type": "Feature", "properties": {"norad_id": 66621, "name": "STARLINK-35847", "group": "last-30-days", "lat": -50.3563588833763, "lon": 63.05607777309578, "alt_km": 435.273517137447, "timestamp": "2025-12-25T03:55:54.951894+00:00", "meta": {"OBJECT_NAME": "STARLINK-35847", "OBJECT_ID": "2025-271E", "EPOCH": "2025-12-24T20:00:01.000224", "MEAN_MOTION": 15.45535417, "ECCENTRICITY": 0.0001173, "INCLINATION": 53.1598, "RA_OF_ASC_NODE": 129.4318, "ARG_OF_PERICENTER": 80.8828, "MEAN_ANOMALY": 165.0695, "EPHEMERIS_TYPE": 0, "CLASSIFICATION_TYPE": "U", "NORAD_CAT_ID": 66621, "ELEMENT_SET_NO": 999, "REV_AT_EPOCH": 597, "BSTAR": 0.00014478, "MEAN_MOTION_DOT": 6.641e-05, "MEAN_MOTION_DDOT": 0}, "tle": {"line1": "1 66621U 25271E   25358.83334491  .00006641  00000+0  14478-3 0  9999", "line2": "2 66621  53.1598 129.4318 0001173  80.8828 165.0695 15.45535417  5971"}}, "geometry": {"type": "Point", "coordinates": [63.05607777309578, -50.3563588833763]}}, {"type": "Feature", "properties": {"norad_id": 66622, "name": "STARLINK-35950", "group": "last-30-days", "lat": 36.673900801215126, "lon": 162.27146943730688, "alt_km": 442.04154500964887, "timestamp": "2025-12-25T03:55:54.951904+00:00", "meta": {"OBJECT_NAME": "STARLINK-35950", "OBJECT_ID": "2025-271F", "EPOCH": "2025-12-24T19:56:00.766752", "MEAN_MOTION": 15.39636729, "ECCENTRICITY": 5.69e-05, "INCLINATION": 53.162, "RA_OF_ASC_NODE": 129.9074, "ARG_OF_PERICENTER": 51.9875, "MEAN_ANOMALY": 308.1181, "EPHEMERIS_TYPE": 0, "CLASSIFICATION_TYPE": "U", "NORAD_CAT_ID": 66622, "ELEMENT_SET_NO": 999, "REV_AT_EPOCH": 607, "BSTAR": 0.0005481, "MEAN_MOTION_DOT": 0.00021598, "MEAN_MOTION_DDOT": 0}, "tle": {"line1": "1 66622U 25271F   25358.83056443  .00021598  00000+0  54810-3 0  9990", "line2": "2 66622  53.1620 129.9074 0000569  51.9875 308.1181 15.39636729  6074"}}, "geometry": {"type": "Point", "coordinates": [162.27146943730688, 36.673900801215126]}}, {"type": "Feature", "properties": {"norad_id": 66623, "name": "STARLINK-35920", "group": "last-30-days", "lat": -2.6022961968031053, "lon": 126.48304683620569, "alt_km": 448.3010202201167, "timestamp": "2025-12-25T03:55:54.951914+00:00", "meta": {"OBJECT_NAME": "STARLINK-35920", "OBJECT_ID": "2025-271G", "EPOCH": "2025-12-24T20:09:23.217120", "MEAN_MOTION": 15.39644776, "ECCENTRICITY": 7.4e-05, "INCLINATION": 53.1613, "RA_OF_ASC_NODE": 129.9627, "ARG_OF_PERICENTER": 82.3587, "MEAN_ANOMALY": 277.7502, "EPHEMERIS_TYPE": 0, "CLASSIFICATION_TYPE": "U", "NORAD_CAT_ID": 66623, "ELEMENT_SET_NO": 999, "REV_AT_EPOCH": 607, "BSTAR": 0.00082949, "MEAN_MOTION_DOT": 0.0003295, "MEAN_MOTION_DDOT": 0}, "tle": {"line1": "1 66623U 25271G   25358.83985205  .00032950  00000+0  82949-3 0  9996", "line2": "2 66623  53.1613 129.9627 0000740  82.3587 277.7502 15.39644776  6079"}}, "geometry": {"type": "Point", "coordinates": [126.48304683620569, -2.6022961968031053]}}, {"type": "Feature", "properties": {"norad_id": 66624, "name": "STARLINK-35927", "group": "last-30-days", "lat": -18.08641475942837, "lon": -37.795243627429876, "alt_km": 449.9471567716073, "timestamp": "2025-12-25T03:55:54.951924+00:00", "meta": {"OBJECT_NAME": "STARLINK-35927", "OBJECT_ID": "2025-271H", "EPOCH": "2025-12-24T20:00:01.000224", "MEAN_MOTION": 15.39601034, "ECCENTRICITY": 6.47e-05, "INCLINATION": 53.1596, "RA_OF_ASC_NODE": 129.5894, "ARG_OF_PERICENTER": 118.6784, "MEAN_ANOMALY": 51.2382, "EPHEMERIS_TYPE": 0, "CLASSIFICATION_TYPE": "U", "NORAD_CAT_ID": 66624, "ELEMENT_SET_NO": 999, "REV_AT_EPOCH": 602, "BSTAR": 0.002588, "MEAN_MOTION_DOT": 0.00104483, "MEAN_MOTION_DDOT": 0}, "tle": {"line1": "1 66624U 25271H   25358.83334491  .00104483  00000+0  25880-2 0  9993", "line2": "2 66624  53.1596 129.5894 0000647 118.6784  51.2382 15.39601034  6026"}}, "geometry": {"type": "Point", "coordinates": [-37.795243627429876, -18.08641475942837]}}]}